[{"OBJECT_NAME":"STARLINK-1826","OBJECT_ID":"2020-073BF","EPOCH":"2026-03-10T00:00:02.999808","MEAN_MOTION":15.6009455,"ECCENTRICITY":0.00053849,"INCLINATION":53.0471,"RA_OF_ASC_NODE":178.9606,"ARG_OF_PERICENTER":209.9765,"MEAN_ANOMALY":60.9512,"EPHEMERIS_TYPE":0,"CLASSIFICATION_TYPE":"U","NORAD_CAT_ID":46723,"ELEMENT_SET_NO":999,"REV_AT_EPOCH":583,"BSTAR":0.0016085748,"MEAN_MOTION_DOT":0.00134686,"MEAN_MOTION_DDOT":0},{"OBJECT_NAME":"STARLINK-36624","OBJECT_ID":"2026-020V","EPOCH":"2026-03-09T22:00:01.999584","MEAN_MOTION":15.72324951,"ECCENTRICITY":0.00014578,"INCLINATION":42.9993,"RA_OF_ASC_NODE":140.3634,"ARG_OF_PERICENTER":283.0093,"MEAN_ANOMALY":189.311,"EPHEMERIS_TYPE":0,"CLASSIFICATION_TYPE":"U","NORAD_CAT_ID":67636,"ELEMENT_SET_NO":999,"REV_AT_EPOCH":604,"BSTAR":-0.016364225,"MEAN_MOTION_DOT":-0.0197652,"MEAN_MOTION_DDOT":0}]
